STARLINK-30753          
1 58175U 23167A   24174.36534213  .00002194  00000+0  17750-3 0  9998
2 58175  43.0046 303.4940 0001520 266.0067  94.0602 15.02519786 36849
STARLINK-30824          
1 58176U 23167B   24173.43353802  .00000644  00000+0  62755-4 0  9993
2 58176  43.0066 308.5448 0001021 266.1857  93.8868 15.02532707 36754
STARLINK-30791          
1 58177U 23167C   24173.45018294  .00000304  00000+0  37552-4 0  9999
2 58177  43.0046 308.6516 0001169 274.2531  85.8178 15.02533389 36709
STARLINK-30810          
1 58178U 23167D   24173.42699343 -.00000199  00000+0  35554-6 0  9992
2 58178  43.0050 309.3398 0001380 273.1771  86.8913 15.02537977 36749
STARLINK-30819          
1 58179U 23167E   24173.62310061 -.00000024  00000+0  13284-4 0  9993
2 58179  43.0035 308.2275 0001301 273.6115  86.4579 15.02532128 36775
STARLINK-30806          
1 58180U 23167F   24173.42033556  .00001199  00000+0  10380-3 0  9990
2 58180  43.0047 309.2886 0001295 272.7506  87.3188 15.02531760 36749
STARLINK-30821          
1 58181U 23167G   24174.37755827 -.00000381  00000+0 -13146-4 0  9996
2 58181  43.0058 303.5664 0001830 266.2092  93.8541 15.02518508 36847
STARLINK-30778          
1 58182U 23167H   24173.70943701 -.00000131  00000+0  53719-5 0  9996
2 58182  43.0034 307.1555 0000975 271.6613  88.4117 15.02535763 36794
STARLINK-30809          
1 58183U 23167J   24173.41699678  .00002225  00000+0  17976-3 0  9994
2 58183  43.0053 309.2630 0001408 261.0560  99.0123 15.02530162 36747
STARLINK-30801          
1 58184U 23167K   24173.74605822  .00002972  00000+0  23495-3 0  9991
2 58184  43.0047 307.4329 0001571 265.2049  94.8614 15.02540928 36744
STARLINK-30793          
1 58185U 23167L   24174.37088054  .00000750  00000+0  70564-4 0  9996
2 58185  43.0050 303.5178 0001683 263.2900  96.7751 15.02534569 36844
STARLINK-30755          
1 58186U 23167M   24174.40195780 -.00000823  00000+0 -45814-4 0  9999
2 58186  43.0057 303.7514 0001777 271.1427  88.9212 15.02539785 36844
STARLINK-30760          
1 58187U 23167N   24174.36755437  .00000640  00000+0  62444-4 0  9999
2 58187  43.0042 303.4908 0001127 274.4841  85.5873 15.02531908 36898
STARLINK-30826          
1 58188U 23167P   24174.40085713  .00002918  00000+0  23114-3 0  9998
2 58188  43.0014 303.7415 0000295 208.6524 151.4302 15.02512968 36846
STARLINK-30796          
1 58189U 23167Q   24173.80588213  .00001422  00000+0  12035-3 0  9994
2 58189  43.0059 307.0207 0001501 263.3652  96.7020 15.02530685 36757
STARLINK-30820          
1 58190U 23167R   24174.40750957 -.00000366  00000+0 -12050-4 0  9995
2 58190  43.0061 303.7877 0001317 270.3041  89.7650 15.02541349 36898
STARLINK-30785          
1 58191U 23167S   24174.39417482 -.00015915  00000+0 -11637-2 0  9991
2 58191  43.0045 303.6933 0001112 283.1205  76.9513 15.02601017 36840
STARLINK-30807          
1 58192U 23167T   24174.39752407 -.00000362  00000+0 -11760-4 0  9990
2 58192  43.0071 303.7211 0000882 255.4330 104.6415 15.02539818 36898
STARLINK-30822          
1 58193U 23167U   24173.46017079  .00000482  00000+0  50718-4 0  9994
2 58193  43.0026 308.7242 0001084 261.0012  99.0707 15.02538057 36753
STARLINK-30830          
1 58194U 23167V   24173.38925294 -.00000495  00000+0 -21551-4 0  9992
2 58194  43.0011 309.0381 0001163 268.3655  91.7054 15.02536819 36744
STARLINK-30827          
1 58195U 23167W   24173.58647772  .00002297  00000+0  18504-3 0  9990
2 58195  43.0027 307.9527 0001482 272.2805  87.7868 15.02536483 36774
STARLINK-30798          
1 58196U 23167X   24174.42748664  .00001891  00000+0  15505-3 0  9994
2 58196  43.0056 303.9380 0001387 268.8338  91.2346 15.02537179 36848
STARLINK-30762          
1 58197U 23167Y   24173.78922657 -.00002848  00000+0 -19592-3 0  9994
2 58197  43.0057 306.8894 0001601 266.7349  93.3310 15.02525212 36759
STARLINK-30800          
1 58206U 23170A   24173.98061930  .00001083  00000+0  95255-4 0  9998
2 58206  43.0065 356.1011 0001891 239.6651 120.4005 15.02534103 36172
STARLINK-30845          
1 58207U 23170B   24174.54230029  .00000538  00000+0  54919-4 0  9995
2 58207  43.0045 352.5965 0001170 271.4732  88.5976 15.02535758 36272
STARLINK-30841          
1 58208U 23170C   24174.52242800  .00000790  00000+0  73539-4 0  9993
2 58208  43.0047 353.2685 0001390 249.4831 110.5862 15.02537035 36136
STARLINK-30839          
1 58209U 23170D   24174.56893489 -.00000106  00000+0  72153-5 0  9997
2 58209  43.0034 352.7728 0001410 266.6116  93.4565 15.02544927 36266
STARLINK-30846          
1 58210U 23170E   24173.90748409  .00002654  00000+0  21153-3 0  9998
2 58210  43.0046 356.4120 0000994 214.7252 145.3526 15.02524580 36042
STARLINK-30838          
1 58211U 23170F   24174.56227359  .00000835  00000+0  76885-4 0  9990
2 58211  43.0053 352.7262 0001452 273.4693  86.5984 15.02536738 36264
STARLINK-30837          
1 58212U 23170G   24173.97728898  .00003799  00000+0  29610-3 0  9994
2 58212  43.0022 356.0578 0001257 276.2131  83.8568 15.02542679 36189
STARLINK-30813          
1 58213U 23170H   24174.55894012  .00001843  00000+0  15148-3 0  9991
2 58213  43.0057 352.6992 0001480 273.3323  86.7350 15.02539387 36148
STARLINK-30805          
1 58214U 23170J   24174.55560661 -.00001695  00000+0 -11038-3 0  9993
2 58214  43.0059 352.6750 0001309 266.9626  93.1066 15.02555417 36257
STARLINK-30851          
1 58215U 23170K   24174.55228448 -.00000175  00000+0  21200-5 0  9993
2 58215  43.0034 352.6468 0001199 271.2168  88.8537 15.02538181 36145
STARLINK-30786          
1 58216U 23170L   24173.61585385 -.00000095  00000+0  56374-5 0  9997
2 58216  42.9997 298.6075 0000831 199.3397 160.7425 15.32599177 36793
STARLINK-30818          
1 58217U 23170M   24173.81437384 -.00003852  00000+0 -27012-3 0  9995
2 58217  43.0042 356.5749 0000921 256.8937 103.1803 15.02556847 36153
STARLINK-30794          
1 58218U 23170N   24174.56559104 -.00001442  00000+0 -91625-4 0  9999
2 58218  43.0056 352.7322 0001430 270.3390  89.7289 15.02554627 36267
STARLINK-30835          
1 58219U 23170P   24174.53897351 -.00000216  00000+0 -94812-6 0  9997
2 58219  43.0041 352.5458 0000952 256.0976 103.9760 15.02531503 36147
STARLINK-30792          
1 58220U 23170Q   24173.93733741 -.00000051  00000+0  11271-4 0  9996
2 58220  43.0050 355.7719 0001110 262.8866  97.1850 15.02534420 36150
STARLINK-30836          
1 58221U 23170R   24174.53230630 -.00000243  00000+0 -29024-5 0  9993
2 58221  43.0033 352.4939 0000892 262.2805  97.7936 15.02535185 36142
STARLINK-30855          
1 58222U 23170S   24173.58840936  .00001691  00000+0  14023-3 0  9991
2 58222  43.0049 358.3003 0001371 272.7458  87.3228 15.02537318 36093
STARLINK-30840          
1 58223U 23170T   24173.58507996  .00001439  00000+0  12155-3 0  9992
2 58223  43.0054 358.2741 0001037 266.9640  93.1083 15.02534219 36007
STARLINK-30875          
1 58224U 23170U   24174.54896056  .00000223  00000+0  31616-4 0  9992
2 58224  43.0067 352.6067 0001291 270.6669  89.4026 15.02530015 36203
STARLINK-30872          
1 58225U 23170V   24174.50638253  .00000783  00000+0  56589-4 0  9999
2 58225  43.0054 333.6614 0001429 270.0533  90.0150 15.12663396 35298
STARLINK-30865          
1 58226U 23170W   24174.49422882  .00000758  00000+0  71143-4 0  9992
2 58226  43.0044 342.0209 0001057 265.5842  94.4880 15.02534924 36260
STARLINK-30874          
1 58227U 23170X   24174.52909424  .00002429  00000+0  19459-3 0  9997
2 58227  43.0043 353.3177 0001955 244.5729 115.4911 15.02587084 36148
STARLINK-30871          
1 58228U 23170Y   24174.52575653  .00001814  00000+0  14930-3 0  9997
2 58228  43.0053 353.2909 0001658 258.3951 101.6705 15.02539950 35058
STARLINK-30861          
1 58230U 23171A   24173.99197050 -.00000777  00000+0 -42408-4 0  9993
2 58230  42.9999  85.9207 0001129 203.5986 156.4805 15.02548191 35620
STARLINK-30867          
1 58231U 23171B   24173.99529258  .00000688  00000+0  65993-4 0  9996
2 58231  43.0050  85.9454 0001136 266.6535  93.4178 15.02537360 35622
STARLINK-30880          
1 58232U 23171C   24173.73270934 -.00000808  00000+0 -44708-4 0  9990
2 58232  43.0068  87.4166 0001516 269.1732  90.8936 15.02535323 35561
STARLINK-30777          
1 58233U 23171D   24174.13823588  .00005405  00000+0  41486-3 0  9990
2 58233  43.0043  85.2942 0000487 304.2757  55.8039 15.02540019 35582
STARLINK-30860          
1 58234U 23171E   24173.20421536  .00000452  00000+0  48551-4 0  9993
2 58234  43.0032  90.3283 0000989 267.4922  92.5807 15.02540739 35486
STARLINK-30879          
1 58235U 23171F   24174.18805078  .00002896  00000+0  22926-3 0  9990
2 58235  43.0046  84.7938 0001063 263.3654  96.7067 15.02548269 35599
STARLINK-30853          
1 58236U 23171G   24174.14156777  .00000178  00000+0  28274-4 0  9996
2 58236  43.0046  85.3175 0001307 270.1542  89.9150 15.02534001 35645
STARLINK-30866          
1 58237U 23171H   24174.17807632  .00000468  00000+0  49748-4 0  9994
2 58237  43.0035  84.7261 0001169 269.1193  90.9515 15.02534744 35640
STARLINK-30817          
1 58238U 23171J   24174.14489190  .00002731  00000+0  21723-3 0  9994
2 58238  43.0041  85.3396 0000899 247.4436 112.6311 15.02529169 35643
STARLINK-30847          
1 58239U 23171K   24173.81584016  .00000746  00000+0  70272-4 0  9999
2 58239  43.0047  87.1708 0001384 267.6931  92.3753 15.02534199 35598
STARLINK-30848          
1 58240U 23171L   24174.16289902 -.00000278  00000+0 -55108-5 0  9990
2 58240  43.0022  86.3039 0001057 270.1528  89.9193 15.02532905 35637
STARLINK-30843          
1 58241U 23171M   24174.15155137  .00000514  00000+0  53113-4 0  9996
2 58241  43.0034  85.3764 0001150 273.3482  86.7229 15.02542943 35642
STARLINK-30877          
1 58242U 23171N   24174.04845257  .00001342  00000+0  11441-3 0  9991
2 58242  43.0034  85.4713 0001153 273.0834  86.9876 15.02527430 35632
